CCSDS_OMM_VERS,COMMENT,CREATION_DATE,ORIGINATOR,OBJECT_NAME,OBJECT_ID,CENTER_NAME,REF_FRAME,TIME_SYSTEM,MEAN_ELEMENT_THEORY,EPOCH,MEAN_MOTION,ECCENTRICITY,INCLINATION,RA_OF_ASC_NODE,ARG_OF_PERICENTER,MEAN_ANOMALY,EPHEMERIS_TYPE,CLASSIFICATION_TYPE,NORAD_CAT_ID,ELEMENT_SET_NO,REV_AT_EPOCH,BSTAR,MEAN_MOTION_DOT,MEAN_MOTION_DDOT,SEMIMAJOR_AXIS,PERIOD,APOAPSIS,PERIAPSIS,OBJECT_TYPE,RCS_SIZE,COUNTRY_CODE,LAUNCH_DATE,SITE,DECAY_DATE,FILE,GP_ID,TLE_LINE0,TLE_LINE1,TLE_LINE2
"2.0","GENERATED VIA SPACE-TRACK.ORG API","2013-03-16T16:52:20","18 SPCS","BLITS","2009-049G","EARTH","TEME","UTC","SGP4","2013-03-16T19:14:27.526272","14.21642011","0.00035650","98.6058","129.2545","357.5891","2.5266","0","U","35871","999","18069","0.00002572900000","0.00000014","0.0000000000000","7197.946","101.291","822.377","817.245","PAYLOAD","SMALL","CIS","2009-09-17","TTMTR","","1455413","92428266","0 BLITS","1 35871U 09049G   13075.80170748  .00000014  00000-0  25729-4 0  9991","2 35871 098.6058 129.2545 0003565 357.5891 002.5266 14.21642011180694"
"2.0","GENERATED VIA SPACE-TRACK.ORG API","2013-03-17T00:37:04","18 SPCS","BLITS","2009-049G","EARTH","TEME","UTC","SGP4","2013-03-17T01:59:51.206784","14.21642006","0.00035550","98.6058","129.5290","356.7867","3.3284","0","U","35871","999","18073","0.00002473400000","0.00000011","0.0000000000000","7197.946","101.291","822.370","817.252","PAYLOAD","SMALL","CIS","2009-09-17","TTMTR","","1455597","92431232","0 BLITS","1 35871U 09049G   13076.08323156  .00000011  00000-0  24734-4 0  9997","2 35871 098.6058 129.5290 0003555 356.7867 003.3284 14.21642006180735"
"2.0","GENERATED VIA SPACE-TRACK.ORG API","2013-03-17T16:42:47","18 SPCS","BLITS","2009-049G","EARTH","TEME","UTC","SGP4","2013-03-17T15:30:38.713824","14.21640652","0.00035070","98.6031","130.0791","354.4046","5.7114","0","U","35871","999","18081","-0.00000435790000","-0.00000052","0.0000000000000","7197.951","101.291","822.340","817.291","PAYLOAD","SMALL","CIS","2009-09-17","TTMTR","","1455887","92436207","0 BLITS","1 35871U 09049G   13076.64628141 -.00000052  00000-0 -43579-5 0  9997","2 35871 098.6031 130.0791 0003507 354.4046 005.7114 14.21640652180812"
"2.0","GENERATED VIA SPACE-TRACK.ORG API","2013-03-18T00:43:07","18 SPCS","BLITS","2009-049G","EARTH","TEME","UTC","SGP4","2013-03-18T03:20:05.017343","14.21642028","0.00034970","98.6056","130.5583","353.6379","6.4756","0","U","35871","999","18088","0.00002257900000","0.00000007","0.0000000000000","7197.946","101.291","822.328","817.294","PAYLOAD","SMALL","CIS","2009-09-17","TTMTR","","1456113","92438916","0 BLITS","1 35871U 09049G   13077.13894696  .00000007  00000-0  22579-4 0  9996","2 35871 098.6056 130.5583 0003497 353.6379 006.4756 14.21642028180887"
"2.0","GENERATED VIA SPACE-TRACK.ORG API","2013-03-18T16:50:42","18 SPCS","BLITS","2009-049G","EARTH","TEME","UTC","SGP4","2013-03-18T16:50:52.367999","14.21641958","0.00034770","98.6055","131.1074","351.9212","8.1900","0","U","35871","999","18096","0.00001783300000","-0.00000004","0.0000000000000","7197.946","101.291","822.314","817.309","PAYLOAD","SMALL","CIS","2009-09-17","TTMTR","","1456449","92444239","0 BLITS","1 35871U 09049G   13077.70199500 -.00000004  00000-0  17833-4 0  9996","2 35871 098.6055 131.1074 0003477 351.9212 008.1900 14.21641958180963"
"2.0","GENERATED VIA SPACE-TRACK.ORG API","2013-03-19T00:53:54","18 SPCS","BLITS","2009-049G","EARTH","TEME","UTC","SGP4","2013-03-19T02:58:57.885312","14.21642784","0.00032920","98.6033","131.5208","346.1327","13.9820","0","U","35871","999","18102","-0.00001165100000","-0.00000068","0.0000000000000","7197.943","101.291","822.178","817.439","PAYLOAD","SMALL","CIS","2009-09-17","TTMTR","","1456704","92447741","0 BLITS","1 35871U 09049G   13078.12428108 -.00000068  00000-0 -11651-4 0  9995","2 35871 098.6033 131.5208 0003292 346.1327 013.9820 14.21642784181021"
"2.0","GENERATED VIA SPACE-TRACK.ORG API","2013-03-19T16:53:29","18 SPCS","BLITS","2009-049G","EARTH","TEME","UTC","SGP4","2013-03-19T16:29:45.241152","14.21642050","0.00034740","98.6051","132.0678","348.6849","11.4247","0","U","35871","999","18110","0.00001761500000","-0.00000004","0.0000000000000","7197.946","101.291","822.312","817.310","PAYLOAD","SMALL","CIS","2009-09-17","TTMTR","","1457091","92453296","0 BLITS","1 35871U 09049G   13078.68732918 -.00000004  00000-0  17615-4 0  9998","2 35871 098.6051 132.0678 0003474 348.6849 011.4247 14.21642050181107"
"2.0","GENERATED VIA SPACE-TRACK.ORG API","2013-03-20T00:54:21","18 SPCS","BLITS","2009-049G","EARTH","TEME","UTC","SGP4","2013-03-20T02:37:50.565792","14.21642089","0.00038060","98.6028","132.4819","341.0541","19.0413","0","U","35871","999","18116","-0.00004918400000","-0.00000151","0.0000000000000","7197.946","101.291","822.550","817.071","PAYLOAD","SMALL","CIS","2009-09-17","TTMTR","","1457273","92456712","0 BLITS","1 35871U 09049G   13079.10961303 -.00000151  00000-0 -49184-4 0  9998","2 35871 098.6028 132.4819 0003806 341.0541 019.0413 14.21642089181164"
"2.0","GENERATED VIA SPACE-TRACK.ORG API","2013-03-20T16:47:57","18 SPCS","BLITS","2009-049G","EARTH","TEME","UTC","SGP4","2013-03-20T16:08:38.008895","14.21641663","0.00038400","98.6042","133.0319","339.0838","21.0157","0","U","35871","999","18124","-0.00011640000000","-0.00000298","0.0000000000000","7197.947","101.291","822.576","817.048","PAYLOAD","SMALL","CIS","2009-09-17","TTMTR","","1457701","92462928","0 BLITS","1 35871U 09049G   13079.67266214 -.00000298  00000-0 -11640-3 0  9996","2 35871 098.6042 133.0319 0003840 339.0838 021.0157 14.21641663181240"
"2.0","GENERATED VIA SPACE-TRACK.ORG API","2013-03-21T00:44:19","18 SPCS","BLITS","2009-049G","EARTH","TEME","UTC","SGP4","2013-03-21T02:16:43.584960","14.21642244","0.00034620","98.6058","133.4417","344.7785","15.3286","0","U","35871","999","18130","0.00001925500000","-0.00000001","0.0000000000000","7197.945","101.291","822.302","817.318","PAYLOAD","SMALL","CIS","2009-09-17","TTMTR","","1457857","92465934","0 BLITS","1 35871U 09049G   13080.09494890 -.00000001  00000-0  19255-4 0  9999","2 35871 098.6058 133.4417 0003462 344.7785 015.3286 14.21642244181306"
"2.0","GENERATED VIA SPACE-TRACK.ORG API","2013-03-21T17:18:48","18 SPCS","BLITS","2009-049G","EARTH","TEME","UTC","SGP4","2013-03-21T15:47:30.932160","14.21642073","0.00034660","98.6050","133.9895","342.2421","17.8609","0","U","35871","999","18138","0.00001236700000","-0.00000016","0.0000000000000","7197.946","101.291","822.306","817.316","PAYLOAD","SMALL","CIS","2009-09-17","TTMTR","","1458154","92470330","0 BLITS","1 35871U 09049G   13080.65799690 -.00000016  00000-0  12367-4 0  9990","2 35871 098.6050 133.9895 0003466 342.2421 017.8609 14.21642073181381"
"2.0","GENERATED VIA SPACE-TRACK.ORG API","2013-03-22T00:52:21","18 SPCS","BLITS","2009-049G","EARTH","TEME","UTC","SGP4","2013-03-22T01:55:36.490944","14.21642125","0.00034730","98.6050","134.4012","341.0378","19.0673","0","U","35871","999","18144","0.00001319800000","-0.00000014","0.0000000000000","7197.946","101.291","822.311","817.311","PAYLOAD","SMALL","CIS","2009-09-17","TTMTR","","1458331","92474028","0 BLITS","1 35871U 09049G   13081.08028346 -.00000014  00000-0  13198-4 0  9992","2 35871 098.6050 134.4012 0003473 341.0378 019.0673 14.21642125181444"
"2.0","GENERATED VIA SPACE-TRACK.ORG API","2013-03-22T16:47:13","18 SPCS","BLITS","2009-049G","EARTH","TEME","UTC","SGP4","2013-03-22T15:26:23.833824","14.21641998","0.00033870","98.6051","134.9505","339.5261","20.5776","0","U","35871","999","18152","0.00000605980000","-0.00000030","0.0000000000000","7197.946","101.291","822.249","817.373","PAYLOAD","SMALL","CIS","2009-09-17","TTMTR","","1458676","92480068","0 BLITS","1 35871U 09049G   13081.64333141 -.00000030  00000-0  60598-5 0  9991","2 35871 098.6051 134.9505 0003387 339.5261 020.5776 14.21641998181521"
"2.0","GENERATED VIA SPACE-TRACK.ORG API","2013-03-23T00:52:07","18 SPCS","BLITS","2009-049G","EARTH","TEME","UTC","SGP4","2013-03-23T03:15:50.268671","14.21641974","0.00033740","98.6052","135.4308","338.3021","21.8009","0","U","35871","999","18159","0.00000393000000","-0.00000034","0.0000000000000","7197.946","101.291","822.240","817.383","PAYLOAD","SMALL","CIS","2009-09-17","TTMTR","","1458889","92482914","0 BLITS","1 35871U 09049G   13082.13599848 -.00000034  00000-0  39300-5 0  9995","2 35871 098.6052 135.4308 0003374 338.3021 021.8009 14.21641974181590"
"2.0","GENERATED VIA SPACE-TRACK.ORG API","2013-03-23T16:42:38","18 SPCS","BLITS","2009-049G","EARTH","TEME","UTC","SGP4","2013-03-23T16:46:37.627103","14.21641875","0.00033490","98.6052","135.9799","335.7264","24.3751","0","U","35871","999","18167","-0.00000068832000","-0.00000044","0.0000000000000","7197.947","101.291","822.222","817.401","PAYLOAD","SMALL","CIS","2009-09-17","TTMTR","","1459224","92488537","0 BLITS","1 35871U 09049G   13082.69904661 -.00000044  00000-0 -68832-6 0  9994","2 35871 098.6052 135.9799 0003349 335.7264 024.3751 14.21641875181672"
"2.0","GENERATED VIA SPACE-TRACK.ORG API","2013-03-24T00:43:05","18 SPCS","BLITS","2009-049G","EARTH","TEME","UTC","SGP4","2013-03-24T01:13:22.234655","14.21641921","0.00033430","98.6053","136.3233","334.7089","25.3929","0","U","35871","999","18172","0.00000078558000","-0.00000041","0.0000000000000","7197.946","101.291","822.218","817.405","PAYLOAD","SMALL","CIS","2009-09-17","TTMTR","","1459549","92491323","0 BLITS","1 35871U 09049G   13083.05095179 -.00000041  00000-0  78558-6 0  9992","2 35871 098.6053 136.3233 0003343 334.7089 025.3929 14.21641921181725"
